start=new Date('2022-03-24T00:00:00.000Z').valueOf();
sats=[{"RA_OF_ASC_NODE":"193.9306","ECCENTRICITY":"0.00015290","TIME_SYSTEM":"UTC","ELEMENT_SET_NO":"999","OBJECT_TYPE":"PAYLOAD","TLE_LINE1":"1 50844U 22001AT  22082.91667824 -.00004744  00000-0 -28019-3 0  9997","INCLINATION":"53.2172","CENTER_NAME":"EARTH","BSTAR":"-0.00028019000000","EPOCH":"2022-03-23T22:00:00.999936","CLASSIFICATION_TYPE":"U","DECAY_DATE":null,"MEAN_MOTION_DOT":"-0.00004744","PERIOD":"95.438","OBJECT_ID":"2022-001AT","OBJECT_NAME":"STARLINK-3326","REF_FRAME":"TEME","MEAN_MOTION_DDOT":"0.0000000000000","PERIAPSIS":"538.690","APOAPSIS":"540.806","SEMIMAJOR_AXIS":"6917.883","REV_AT_EPOCH":"363","GP_ID":"199539925","SITE":"AFETR","MEAN_ANOMALY":"311.0031","TLE_LINE2":"2 50844  53.2172 193.9306 0001529  54.8810 311.0031 15.08839095  3636","EPHEMERIS_TYPE":"0","NORAD_CAT_ID":"50844","MEAN_ELEMENT_THEORY":"SGP4","LAUNCH_DATE":"2022-01-06","RCS_SIZE":"LARGE","COUNTRY_CODE":"US","MEAN_MOTION":"15.08839095","FILE":"3371636","ARG_OF_PERICENTER":"54.8810"},{"ARG_OF_PERICENTER":"82.2634","FILE":"3371636","MEAN_MOTION":"15.09475397","LAUNCH_DATE":"2022-01-06","MEAN_ELEMENT_THEORY":"SGP4","NORAD_CAT_ID":"50845","COUNTRY_CODE":"US","RCS_SIZE":"LARGE","TLE_LINE2":"2 50845  53.2173 193.9305 0001313  82.2634  43.0964 15.09475397  3647","EPHEMERIS_TYPE":"0","GP_ID":"199539174","REV_AT_EPOCH":"364","MEAN_ANOMALY":"43.0964","SITE":"AFETR","MEAN_MOTION_DDOT":"0.0000000000000","REF_FRAME":"TEME","OBJECT_NAME":"STARLINK-3230","SEMIMAJOR_AXIS":"6915.939","APOAPSIS":"538.712","PERIAPSIS":"536.896","CLASSIFICATION_TYPE":"U","EPOCH":"2022-03-23T22:00:00.999936","BSTAR":"-0.04336900000000","OBJECT_ID":"2022-001AU","PERIOD":"95.397","DECAY_DATE":null,"MEAN_MOTION_DOT":"-0.00657853","OBJECT_TYPE":"PAYLOAD","ELEMENT_SET_NO":"999","INCLINATION":"53.2173","CENTER_NAME":"EARTH","TLE_LINE1":"1 50845U 22001AU  22082.91667824 -.00657853  00000-0 -43369-1 0  9996","RA_OF_ASC_NODE":"193.9305","TIME_SYSTEM":"UTC","ECCENTRICITY":"0.00013130"},{"EPOCH":"2022-03-23T22:00:00.999936","CLASSIFICATION_TYPE":"U","BSTAR":"-0.00019313000000","PERIOD":"95.438","OBJECT_ID":"2022-001AV","DECAY_DATE":null,"MEAN_MOTION_DOT":"-0.00003360","MEAN_MOTION_DDOT":"0.0000000000000","OBJECT_NAME":"STARLINK-3308","REF_FRAME":"TEME","SEMIMAJOR_AXIS":"6917.886","APOAPSIS":"540.805","PERIAPSIS":"538.697","RA_OF_ASC_NODE":"193.9306","TIME_SYSTEM":"UTC","ECCENTRICITY":"0.00015240","OBJECT_TYPE":"PAYLOAD","ELEMENT_SET_NO":"999","CENTER_NAME":"EARTH","INCLINATION":"53.2173","TLE_LINE1":"1 50846U 22001AV  22082.91667824 -.00003360  00000-0 -19313-3 0  9999","LAUNCH_DATE":"2022-01-06","NORAD_CAT_ID":"50846","MEAN_ELEMENT_THEORY":"SGP4","COUNTRY_CODE":"US","RCS_SIZE":"LARGE","ARG_OF_PERICENTER":"54.7598","MEAN_MOTION":"15.08838188","FILE":"3371636","GP_ID":"199539424","REV_AT_EPOCH":"363","SITE":"AFETR","MEAN_ANOMALY":"331.1247","EPHEMERIS_TYPE":"0","TLE_LINE2":"2 50846  53.2173 193.9306 0001524  54.7598 331.1247 15.08838188  3630"},{"TIME_SYSTEM":"UTC","ECCENTRICITY":"0.00017820","RA_OF_ASC_NODE":"193.9385","INCLINATION":"53.2123","CENTER_NAME":"EARTH","TLE_LINE1":"1 50847U 22001AW  22082.91667824 -.00031776  00000-0 -19857-2 0  9994","OBJECT_TYPE":"PAYLOAD","ELEMENT_SET_NO":"999","OBJECT_ID":"2022-001AW","PERIOD":"95.436","MEAN_MOTION_DOT":"-0.00031776","DECAY_DATE":null,"CLASSIFICATION_TYPE":"U","EPOCH":"2022-03-23T22:00:00.999936","BSTAR":"-0.00198570000000","SEMIMAJOR_AXIS":"6917.794","PERIAPSIS":"538.426","APOAPSIS":"540.891","MEAN_MOTION_DDOT":"0.0000000000000","REF_FRAME":"TEME","OBJECT_NAME":"STARLINK-3319","MEAN_ANOMALY":"202.3106","SITE":"AFETR","GP_ID":"199539675","REV_AT_EPOCH":"363","TLE_LINE2":"2 50847  53.2123 193.9385 0001782  43.7077 202.3106 15.08868363  3630","EPHEMERIS_TYPE":"0","COUNTRY_CODE":"US","RCS_SIZE":"LARGE","LAUNCH_DATE":"2022-01-06","MEAN_ELEMENT_THEORY":"SGP4","NORAD_CAT_ID":"50847","ARG_OF_PERICENTER":"43.7077","FILE":"3371636","MEAN_MOTION":"15.08868363"},{"NORAD_CAT_ID":"50848","MEAN_ELEMENT_THEORY":"SGP4","LAUNCH_DATE":"2022-01-06","RCS_SIZE":"LARGE","COUNTRY_CODE":"US","MEAN_MOTION":"15.08852647","FILE":"3371636","ARG_OF_PERICENTER":"49.7298","REV_AT_EPOCH":"363","GP_ID":"199540426","SITE":"AFETR","MEAN_ANOMALY":"356.1481","TLE_LINE2":"2 50848  53.2173 193.9305 0001591  49.7298 356.1481 15.08852647  3639","EPHEMERIS_TYPE":"0","BSTAR":"-0.00167850000000","EPOCH":"2022-03-23T22:00:00.999936","CLASSIFICATION_TYPE":"U","DECAY_DATE":null,"MEAN_MOTION_DOT":"-0.00026911","PERIOD":"95.437","OBJECT_ID":"2022-001AX","OBJECT_NAME":"STARLINK-3315","REF_FRAME":"TEME","MEAN_MOTION_DDOT":"0.0000000000000","APOAPSIS":"540.807","PERIAPSIS":"538.606","SEMIMAJOR_AXIS":"6917.842","RA_OF_ASC_NODE":"193.9305","ECCENTRICITY":"0.00015910","TIME_SYSTEM":"UTC","ELEMENT_SET_NO":"999","OBJECT_TYPE":"PAYLOAD","TLE_LINE1":"1 50848U 22001AX  22082.91667824 -.00026911  00000-0 -16785-2 0  9997","CENTER_NAME":"EARTH","INCLINATION":"53.2173"},{"APOAPSIS":"540.856","PERIAPSIS":"538.639","SEMIMAJOR_AXIS":"6917.882","OBJECT_NAME":"STARLINK-3311","REF_FRAME":"TEME","MEAN_MOTION_DDOT":"0.0000000000000","MEAN_MOTION_DOT":"-0.00005330","DECAY_DATE":null,"PERIOD":"95.438","OBJECT_ID":"2022-001AY","BSTAR":"-0.00031705000000","EPOCH":"2022-03-23T22:00:00.999936","CLASSIFICATION_TYPE":"U","TLE_LINE1":"1 50849U 22001AY  22082.91667824 -.00005330  00000-0 -31705-3 0  9990","CENTER_NAME":"EARTH","INCLINATION":"53.2173","ELEMENT_SET_NO":"999","OBJECT_TYPE":"PAYLOAD","ECCENTRICITY":"0.00016020","TIME_SYSTEM":"UTC","RA_OF_ASC_NODE":"193.9305","MEAN_MOTION":"15.08839377","FILE":"3371636","ARG_OF_PERICENTER":"51.6104","RCS_SIZE":"LARGE","COUNTRY_CODE":"US","NORAD_CAT_ID":"50849","MEAN_ELEMENT_THEORY":"SGP4","LAUNCH_DATE":"2022-01-06","TLE_LINE2":"2 50849  53.2173 193.9305 0001602  51.6104 294.2736 15.08839377  3631","EPHEMERIS_TYPE":"0","SITE":"AFETR","MEAN_ANOMALY":"294.2736","REV_AT_EPOCH":"363","GP_ID":"199538674"},{"EPHEMERIS_TYPE":"0","TLE_LINE2":"2 50850  53.2161 182.8020 0004070 351.6032 148.8303 15.73199915  3707","MEAN_ANOMALY":"148.8303","SITE":"AFETR","GP_ID":"199538924","REV_AT_EPOCH":"370","ARG_OF_PERICENTER":"351.6032","FILE":"3371636","MEAN_MOTION":"15.73199915","COUNTRY_CODE":"US","RCS_SIZE":"LARGE","LAUNCH_DATE":"2022-01-06","MEAN_ELEMENT_THEORY":"SGP4","NORAD_CAT_ID":"50850","CENTER_NAME":"EARTH","INCLINATION":"53.2161","TLE_LINE1":"1 50850U 22001AZ  22082.91667824 -.00019922  00000-0 -13776-3 0  9992","OBJECT_TYPE":"PAYLOAD","ELEMENT_SET_NO":"999","TIME_SYSTEM":"UTC","ECCENTRICITY":"0.00040700","RA_OF_ASC_NODE":"182.8020","SEMIMAJOR_AXIS":"6727.895","APOAPSIS":"352.499","PERIAPSIS":"347.022","MEAN_MOTION_DDOT":"0.0000000000000","REF_FRAME":"TEME","OBJECT_NAME":"STARLINK-3312","OBJECT_ID":"2022-001AZ","PERIOD":"91.533","MEAN_MOTION_DOT":"-0.00019922","DECAY_DATE":null,"CLASSIFICATION_TYPE":"U","EPOCH":"2022-03-23T22:00:00.999936","BSTAR":"-0.00013776000000"},{"MEAN_ANOMALY":"13.6369","SITE":"AFETR","GP_ID":"199540176","REV_AT_EPOCH":"363","EPHEMERIS_TYPE":"0","TLE_LINE2":"2 50851  53.2173 193.9305 0001527  52.2041  13.6369 15.08923363  3631","COUNTRY_CODE":"US","RCS_SIZE":"LARGE","LAUNCH_DATE":"2022-01-06","MEAN_ELEMENT_THEORY":"SGP4","NORAD_CAT_ID":"50851","ARG_OF_PERICENTER":"52.2041","FILE":"3371636","MEAN_MOTION":"15.08923363","TIME_SYSTEM":"UTC","ECCENTRICITY":"0.00015270","RA_OF_ASC_NODE":"193.9305","INCLINATION":"53.2173","CENTER_NAME":"EARTH","TLE_LINE1":"1 50851U 22001BA  22082.91667824 -.00133326  00000-0 -84968-2 0  9998","OBJECT_TYPE":"PAYLOAD","ELEMENT_SET_NO":"999","OBJECT_ID":"2022-001BA","PERIOD":"95.432","MEAN_MOTION_DOT":"-0.00133326","DECAY_DATE":null,"CLASSIFICATION_TYPE":"U","EPOCH":"2022-03-23T22:00:00.999936","BSTAR":"-0.00849680000000","SEMIMAJOR_AXIS":"6917.626","APOAPSIS":"540.547","PERIAPSIS":"538.434","MEAN_MOTION_DDOT":"0.0000000000000","REF_FRAME":"TEME","OBJECT_NAME":"STARLINK-3314"},{"EPHEMERIS_TYPE":"0","TLE_LINE2":"2 51104  53.2133 318.4050 0003059  11.3868 277.2101 15.73259241  3715","MEAN_ANOMALY":"277.2101","SITE":"AFETR","REV_AT_EPOCH":"371","GP_ID":"199540455","FILE":"3371636","MEAN_MOTION":"15.73259241","ARG_OF_PERICENTER":"11.3868","RCS_SIZE":"LARGE","COUNTRY_CODE":"US","MEAN_ELEMENT_THEORY":"SGP4","NORAD_CAT_ID":"51104","LAUNCH_DATE":"2022-01-19","TLE_LINE1":"1 51104U 22005A   22082.91667824 -.00088707  00000-0 -63248-3 0  9995","CENTER_NAME":"EARTH","INCLINATION":"53.2133","ELEMENT_SET_NO":"999","OBJECT_TYPE":"PAYLOAD","ECCENTRICITY":"0.00030590","TIME_SYSTEM":"UTC","RA_OF_ASC_NODE":"318.4050","PERIAPSIS":"347.533","APOAPSIS":"351.649","SEMIMAJOR_AXIS":"6727.726","REF_FRAME":"TEME","OBJECT_NAME":"STARLINK-3366","MEAN_MOTION_DDOT":"0.0000000000000","DECAY_DATE":null,"MEAN_MOTION_DOT":"-0.00088707","OBJECT_ID":"2022-005A","PERIOD":"91.530","BSTAR":"-0.00063248000000","CLASSIFICATION_TYPE":"U","EPOCH":"2022-03-23T22:00:00.999936"},{"MEAN_ELEMENT_THEORY":"SGP4","NORAD_CAT_ID":"51105","LAUNCH_DATE":"2022-01-19","RCS_SIZE":"LARGE","COUNTRY_CODE":"US","FILE":"3371636","MEAN_MOTION":"15.73255487","ARG_OF_PERICENTER":"9.1978","REV_AT_EPOCH":"371","GP_ID":"199540679","MEAN_ANOMALY":"272.4663","SITE":"AFETR","EPHEMERIS_TYPE":"0","TLE_LINE2":"2 51105  53.2146 318.4176 0003139   9.1978 272.4663 15.73255487  3713","BSTAR":"-0.00068666000000","CLASSIFICATION_TYPE":"U","EPOCH":"2022-03-23T22:00:00.999936","DECAY_DATE":null,"MEAN_MOTION_DOT":"-0.00096155","OBJECT_ID":"2022-005B","PERIOD":"91.530","REF_FRAME":"TEME","OBJECT_NAME":"STARLINK-3350","MEAN_MOTION_DDOT":"0.0000000000000","APOAPSIS":"351.714","PERIAPSIS":"347.490","SEMIMAJOR_AXIS":"6727.737","RA_OF_ASC_NODE":"318.4176","ECCENTRICITY":"0.00031390","TIME_SYSTEM":"UTC","ELEMENT_SET_NO":"999","OBJECT_TYPE":"PAYLOAD","TLE_LINE1":"1 51105U 22005B   22082.91667824 -.00096155  00000-0 -68666-3 0  9991","INCLINATION":"53.2146","CENTER_NAME":"EARTH"}];
